MALLIGYONG-1            
1 58400U 23179A   24043.14012445  .00009489  00000+0  41305-3 0  9998
2 58400  97.4217 291.8442 0015433 355.4705   4.6389 15.22337786 12551
